{"type":"FeatureCollection","features":[{"type":"Feature","id":"venue-leningradsky","feature_type":"venue","geometry":null,"properties":{"category":"university","name":{"ru":"Ленинградский кампус"},"address":"Ленинградский проспект, 49–55, Москва","source":"© участники OpenStreetMap, ODbL"}},{"type":"Feature","id":"building-55","feature_type":"building","geometry":null,"properties":{"category":"unspecified","name":{"ru":"55"},"osm":"relation/7896706"}},{"type":"Feature","id":"footprint-55","feature_type":"footprint","geometry":{"type":"MultiPolygon","coordinates":[[[[37.5249593,55.8015322],[37.5247691,55.8015838],[37.5247199,55.8015101],[37.524897,55.8012612],[37.5248872,55.8012244],[37.5249069,55.8011857],[37.524979,55.8011672],[37.5250249,55.8011764],[37.5257923,55.8009829],[37.525821,55.8009501],[37.5258907,55.800935],[37.5259566,55.8009425],[37.5259865,55.8009703],[37.5260522,55.800985],[37.526107,55.8009969],[37.5264425,55.8010776],[37.5265059,55.8011483],[37.526353,55.8011922],[37.526426,55.8012301],[37.5264643,55.8012436],[37.5264855,55.8012654],[37.5264585,55.8012857],[37.5263629,55.8012807],[37.5263504,55.8012931],[37.5263149,55.8013344],[37.5263899,55.801356],[37.5264035,55.8013789],[37.5263681,55.8013957],[37.5263111,55.8013927],[37.5263084,55.801414],[37.5263627,55.8014354],[37.5263437,55.8014675],[37.5261835,55.8015026],[37.5260993,55.8014888],[37.5261183,55.8015255],[37.5255968,55.8016522],[37.525567,55.8016217],[37.5255398,55.8016262],[37.5255235,55.8016705],[37.5253606,55.8017087],[37.5252899,55.8016934],[37.5252601,55.8016507],[37.5252519,55.8016736],[37.5252085,55.8016812],[37.5251786,55.8016674],[37.5251867,55.8016293],[37.5251407,55.8016171],[37.5250862,55.8016064],[37.52507,55.8016354],[37.5250129,55.80164],[37.5249885,55.8016171],[37.5250319,55.8015438],[37.5249593,55.8015322]],[[37.5257724,55.8011328],[37.5258637,55.8012552],[37.5259147,55.8013261],[37.5260679,55.8012939],[37.5260875,55.8012726],[37.5261118,55.8012331],[37.5260657,55.801169],[37.5259423,55.8011552],[37.5259071,55.8011009],[37.5257724,55.8011328]],[[37.5253146,55.8012412],[37.5254039,55.8013614],[37.5254681,55.8014469],[37.5253202,55.801478],[37.5252825,55.8014703],[37.5252126,55.8014525],[37.5251645,55.8013889],[37.5251758,55.8013475],[37.5251135,55.8012889],[37.5253146,55.8012412]]]]},"properties":{"category":"ground","building_ids":["building-55"]}},{"type":"Feature","id":"level-55-1","feature_type":"level","geometry":{"type":"MultiPolygon","coordinates":[[[[37.5249593,55.8015322],[37.5247691,55.8015838],[37.5247199,55.8015101],[37.524897,55.8012612],[37.5248872,55.8012244],[37.5249069,55.8011857],[37.524979,55.8011672],[37.5250249,55.8011764],[37.5257923,55.8009829],[37.525821,55.8009501],[37.5258907,55.800935],[37.5259566,55.8009425],[37.5259865,55.8009703],[37.5260522,55.800985],[37.526107,55.8009969],[37.5264425,55.8010776],[37.5265059,55.8011483],[37.526353,55.8011922],[37.526426,55.8012301],[37.5264643,55.8012436],[37.5264855,55.8012654],[37.5264585,55.8012857],[37.5263629,55.8012807],[37.5263504,55.8012931],[37.5263149,55.8013344],[37.5263899,55.801356],[37.5264035,55.8013789],[37.5263681,55.8013957],[37.5263111,55.8013927],[37.5263084,55.801414],[37.5263627,55.8014354],[37.5263437,55.8014675],[37.5261835,55.8015026],[37.5260993,55.8014888],[37.5261183,55.8015255],[37.5255968,55.8016522],[37.525567,55.8016217],[37.5255398,55.8016262],[37.5255235,55.8016705],[37.5253606,55.8017087],[37.5252899,55.8016934],[37.5252601,55.8016507],[37.5252519,55.8016736],[37.5252085,55.8016812],[37.5251786,55.8016674],[37.5251867,55.8016293],[37.5251407,55.8016171],[37.5250862,55.8016064],[37.52507,55.8016354],[37.5250129,55.80164],[37.5249885,55.8016171],[37.5250319,55.8015438],[37.5249593,55.8015322]],[[37.5257724,55.8011328],[37.5258637,55.8012552],[37.5259147,55.8013261],[37.5260679,55.8012939],[37.5260875,55.8012726],[37.5261118,55.8012331],[37.5260657,55.801169],[37.5259423,55.8011552],[37.5259071,55.8011009],[37.5257724,55.8011328]],[[37.5253146,55.8012412],[37.5254039,55.8013614],[37.5254681,55.8014469],[37.5253202,55.801478],[37.5252825,55.8014703],[37.5252126,55.8014525],[37.5251645,55.8013889],[37.5251758,55.8013475],[37.5251135,55.8012889],[37.5253146,55.8012412]]]]},"properties":{"category":"unspecified","ordinal":0,"short_name":{"ru":"1"},"name":{"ru":"1 этаж"},"building_ids":["building-55"],"outdoor":false}},{"type":"Feature","id":"level-55-2","feature_type":"level","geometry":{"type":"MultiPolygon","coordinates":[[[[37.5249593,55.8015322],[37.5247691,55.8015838],[37.5247199,55.8015101],[37.524897,55.8012612],[37.5248872,55.8012244],[37.5249069,55.8011857],[37.524979,55.8011672],[37.5250249,55.8011764],[37.5257923,55.8009829],[37.525821,55.8009501],[37.5258907,55.800935],[37.5259566,55.8009425],[37.5259865,55.8009703],[37.5260522,55.800985],[37.526107,55.8009969],[37.5264425,55.8010776],[37.5265059,55.8011483],[37.526353,55.8011922],[37.526426,55.8012301],[37.5264643,55.8012436],[37.5264855,55.8012654],[37.5264585,55.8012857],[37.5263629,55.8012807],[37.5263504,55.8012931],[37.5263149,55.8013344],[37.5263899,55.801356],[37.5264035,55.8013789],[37.5263681,55.8013957],[37.5263111,55.8013927],[37.5263084,55.801414],[37.5263627,55.8014354],[37.5263437,55.8014675],[37.5261835,55.8015026],[37.5260993,55.8014888],[37.5261183,55.8015255],[37.5255968,55.8016522],[37.525567,55.8016217],[37.5255398,55.8016262],[37.5255235,55.8016705],[37.5253606,55.8017087],[37.5252899,55.8016934],[37.5252601,55.8016507],[37.5252519,55.8016736],[37.5252085,55.8016812],[37.5251786,55.8016674],[37.5251867,55.8016293],[37.5251407,55.8016171],[37.5250862,55.8016064],[37.52507,55.8016354],[37.5250129,55.80164],[37.5249885,55.8016171],[37.5250319,55.8015438],[37.5249593,55.8015322]],[[37.5257724,55.8011328],[37.5258637,55.8012552],[37.5259147,55.8013261],[37.5260679,55.8012939],[37.5260875,55.8012726],[37.5261118,55.8012331],[37.5260657,55.801169],[37.5259423,55.8011552],[37.5259071,55.8011009],[37.5257724,55.8011328]],[[37.5253146,55.8012412],[37.5254039,55.8013614],[37.5254681,55.8014469],[37.5253202,55.801478],[37.5252825,55.8014703],[37.5252126,55.8014525],[37.5251645,55.8013889],[37.5251758,55.8013475],[37.5251135,55.8012889],[37.5253146,55.8012412]]]]},"properties":{"category":"unspecified","ordinal":1,"short_name":{"ru":"2"},"name":{"ru":"2 этаж"},"building_ids":["building-55"],"outdoor":false}},{"type":"Feature","id":"level-55-3","feature_type":"level","geometry":{"type":"MultiPolygon","coordinates":[[[[37.5249593,55.8015322],[37.5247691,55.8015838],[37.5247199,55.8015101],[37.524897,55.8012612],[37.5248872,55.8012244],[37.5249069,55.8011857],[37.524979,55.8011672],[37.5250249,55.8011764],[37.5257923,55.8009829],[37.525821,55.8009501],[37.5258907,55.800935],[37.5259566,55.8009425],[37.5259865,55.8009703],[37.5260522,55.800985],[37.526107,55.8009969],[37.5264425,55.8010776],[37.5265059,55.8011483],[37.526353,55.8011922],[37.526426,55.8012301],[37.5264643,55.8012436],[37.5264855,55.8012654],[37.5264585,55.8012857],[37.5263629,55.8012807],[37.5263504,55.8012931],[37.5263149,55.8013344],[37.5263899,55.801356],[37.5264035,55.8013789],[37.5263681,55.8013957],[37.5263111,55.8013927],[37.5263084,55.801414],[37.5263627,55.8014354],[37.5263437,55.8014675],[37.5261835,55.8015026],[37.5260993,55.8014888],[37.5261183,55.8015255],[37.5255968,55.8016522],[37.525567,55.8016217],[37.5255398,55.8016262],[37.5255235,55.8016705],[37.5253606,55.8017087],[37.5252899,55.8016934],[37.5252601,55.8016507],[37.5252519,55.8016736],[37.5252085,55.8016812],[37.5251786,55.8016674],[37.5251867,55.8016293],[37.5251407,55.8016171],[37.5250862,55.8016064],[37.52507,55.8016354],[37.5250129,55.80164],[37.5249885,55.8016171],[37.5250319,55.8015438],[37.5249593,55.8015322]],[[37.5257724,55.8011328],[37.5258637,55.8012552],[37.5259147,55.8013261],[37.5260679,55.8012939],[37.5260875,55.8012726],[37.5261118,55.8012331],[37.5260657,55.801169],[37.5259423,55.8011552],[37.5259071,55.8011009],[37.5257724,55.8011328]],[[37.5253146,55.8012412],[37.5254039,55.8013614],[37.5254681,55.8014469],[37.5253202,55.801478],[37.5252825,55.8014703],[37.5252126,55.8014525],[37.5251645,55.8013889],[37.5251758,55.8013475],[37.5251135,55.8012889],[37.5253146,55.8012412]]]]},"properties":{"category":"unspecified","ordinal":2,"short_name":{"ru":"3"},"name":{"ru":"3 этаж"},"building_ids":["building-55"],"outdoor":false}},{"type":"Feature","id":"level-55-4","feature_type":"level","geometry":{"type":"MultiPolygon","coordinates":[[[[37.5249593,55.8015322],[37.5247691,55.8015838],[37.5247199,55.8015101],[37.524897,55.8012612],[37.5248872,55.8012244],[37.5249069,55.8011857],[37.524979,55.8011672],[37.5250249,55.8011764],[37.5257923,55.8009829],[37.525821,55.8009501],[37.5258907,55.800935],[37.5259566,55.8009425],[37.5259865,55.8009703],[37.5260522,55.800985],[37.526107,55.8009969],[37.5264425,55.8010776],[37.5265059,55.8011483],[37.526353,55.8011922],[37.526426,55.8012301],[37.5264643,55.8012436],[37.5264855,55.8012654],[37.5264585,55.8012857],[37.5263629,55.8012807],[37.5263504,55.8012931],[37.5263149,55.8013344],[37.5263899,55.801356],[37.5264035,55.8013789],[37.5263681,55.8013957],[37.5263111,55.8013927],[37.5263084,55.801414],[37.5263627,55.8014354],[37.5263437,55.8014675],[37.5261835,55.8015026],[37.5260993,55.8014888],[37.5261183,55.8015255],[37.5255968,55.8016522],[37.525567,55.8016217],[37.5255398,55.8016262],[37.5255235,55.8016705],[37.5253606,55.8017087],[37.5252899,55.8016934],[37.5252601,55.8016507],[37.5252519,55.8016736],[37.5252085,55.8016812],[37.5251786,55.8016674],[37.5251867,55.8016293],[37.5251407,55.8016171],[37.5250862,55.8016064],[37.52507,55.8016354],[37.5250129,55.80164],[37.5249885,55.8016171],[37.5250319,55.8015438],[37.5249593,55.8015322]],[[37.5257724,55.8011328],[37.5258637,55.8012552],[37.5259147,55.8013261],[37.5260679,55.8012939],[37.5260875,55.8012726],[37.5261118,55.8012331],[37.5260657,55.801169],[37.5259423,55.8011552],[37.5259071,55.8011009],[37.5257724,55.8011328]],[[37.5253146,55.8012412],[37.5254039,55.8013614],[37.5254681,55.8014469],[37.5253202,55.801478],[37.5252825,55.8014703],[37.5252126,55.8014525],[37.5251645,55.8013889],[37.5251758,55.8013475],[37.5251135,55.8012889],[37.5253146,55.8012412]]]]},"properties":{"category":"unspecified","ordinal":3,"short_name":{"ru":"4"},"name":{"ru":"4 этаж"},"building_ids":["building-55"],"outdoor":false}},{"type":"Feature","id":"level-55-5","feature_type":"level","geometry":{"type":"MultiPolygon","coordinates":[[[[37.5249593,55.8015322],[37.5247691,55.8015838],[37.5247199,55.8015101],[37.524897,55.8012612],[37.5248872,55.8012244],[37.5249069,55.8011857],[37.524979,55.8011672],[37.5250249,55.8011764],[37.5257923,55.8009829],[37.525821,55.8009501],[37.5258907,55.800935],[37.5259566,55.8009425],[37.5259865,55.8009703],[37.5260522,55.800985],[37.526107,55.8009969],[37.5264425,55.8010776],[37.5265059,55.8011483],[37.526353,55.8011922],[37.526426,55.8012301],[37.5264643,55.8012436],[37.5264855,55.8012654],[37.5264585,55.8012857],[37.5263629,55.8012807],[37.5263504,55.8012931],[37.5263149,55.8013344],[37.5263899,55.801356],[37.5264035,55.8013789],[37.5263681,55.8013957],[37.5263111,55.8013927],[37.5263084,55.801414],[37.5263627,55.8014354],[37.5263437,55.8014675],[37.5261835,55.8015026],[37.5260993,55.8014888],[37.5261183,55.8015255],[37.5255968,55.8016522],[37.525567,55.8016217],[37.5255398,55.8016262],[37.5255235,55.8016705],[37.5253606,55.8017087],[37.5252899,55.8016934],[37.5252601,55.8016507],[37.5252519,55.8016736],[37.5252085,55.8016812],[37.5251786,55.8016674],[37.5251867,55.8016293],[37.5251407,55.8016171],[37.5250862,55.8016064],[37.52507,55.8016354],[37.5250129,55.80164],[37.5249885,55.8016171],[37.5250319,55.8015438],[37.5249593,55.8015322]],[[37.5257724,55.8011328],[37.5258637,55.8012552],[37.5259147,55.8013261],[37.5260679,55.8012939],[37.5260875,55.8012726],[37.5261118,55.8012331],[37.5260657,55.801169],[37.5259423,55.8011552],[37.5259071,55.8011009],[37.5257724,55.8011328]],[[37.5253146,55.8012412],[37.5254039,55.8013614],[37.5254681,55.8014469],[37.5253202,55.801478],[37.5252825,55.8014703],[37.5252126,55.8014525],[37.5251645,55.8013889],[37.5251758,55.8013475],[37.5251135,55.8012889],[37.5253146,55.8012412]]]]},"properties":{"category":"unspecified","ordinal":4,"short_name":{"ru":"5"},"name":{"ru":"5 этаж"},"building_ids":["building-55"],"outdoor":false}},{"type":"Feature","id":"level-55-6","feature_type":"level","geometry":{"type":"MultiPolygon","coordinates":[[[[37.5249593,55.8015322],[37.5247691,55.8015838],[37.5247199,55.8015101],[37.524897,55.8012612],[37.5248872,55.8012244],[37.5249069,55.8011857],[37.524979,55.8011672],[37.5250249,55.8011764],[37.5257923,55.8009829],[37.525821,55.8009501],[37.5258907,55.800935],[37.5259566,55.8009425],[37.5259865,55.8009703],[37.5260522,55.800985],[37.526107,55.8009969],[37.5264425,55.8010776],[37.5265059,55.8011483],[37.526353,55.8011922],[37.526426,55.8012301],[37.5264643,55.8012436],[37.5264855,55.8012654],[37.5264585,55.8012857],[37.5263629,55.8012807],[37.5263504,55.8012931],[37.5263149,55.8013344],[37.5263899,55.801356],[37.5264035,55.8013789],[37.5263681,55.8013957],[37.5263111,55.8013927],[37.5263084,55.801414],[37.5263627,55.8014354],[37.5263437,55.8014675],[37.5261835,55.8015026],[37.5260993,55.8014888],[37.5261183,55.8015255],[37.5255968,55.8016522],[37.525567,55.8016217],[37.5255398,55.8016262],[37.5255235,55.8016705],[37.5253606,55.8017087],[37.5252899,55.8016934],[37.5252601,55.8016507],[37.5252519,55.8016736],[37.5252085,55.8016812],[37.5251786,55.8016674],[37.5251867,55.8016293],[37.5251407,55.8016171],[37.5250862,55.8016064],[37.52507,55.8016354],[37.5250129,55.80164],[37.5249885,55.8016171],[37.5250319,55.8015438],[37.5249593,55.8015322]],[[37.5257724,55.8011328],[37.5258637,55.8012552],[37.5259147,55.8013261],[37.5260679,55.8012939],[37.5260875,55.8012726],[37.5261118,55.8012331],[37.5260657,55.801169],[37.5259423,55.8011552],[37.5259071,55.8011009],[37.5257724,55.8011328]],[[37.5253146,55.8012412],[37.5254039,55.8013614],[37.5254681,55.8014469],[37.5253202,55.801478],[37.5252825,55.8014703],[37.5252126,55.8014525],[37.5251645,55.8013889],[37.5251758,55.8013475],[37.5251135,55.8012889],[37.5253146,55.8012412]]]]},"properties":{"category":"unspecified","ordinal":5,"short_name":{"ru":"6"},"name":{"ru":"6 этаж"},"building_ids":["building-55"],"outdoor":false}},{"type":"Feature","id":"level-55-7","feature_type":"level","geometry":{"type":"MultiPolygon","coordinates":[[[[37.5249593,55.8015322],[37.5247691,55.8015838],[37.5247199,55.8015101],[37.524897,55.8012612],[37.5248872,55.8012244],[37.5249069,55.8011857],[37.524979,55.8011672],[37.5250249,55.8011764],[37.5257923,55.8009829],[37.525821,55.8009501],[37.5258907,55.800935],[37.5259566,55.8009425],[37.5259865,55.8009703],[37.5260522,55.800985],[37.526107,55.8009969],[37.5264425,55.8010776],[37.5265059,55.8011483],[37.526353,55.8011922],[37.526426,55.8012301],[37.5264643,55.8012436],[37.5264855,55.8012654],[37.5264585,55.8012857],[37.5263629,55.8012807],[37.5263504,55.8012931],[37.5263149,55.8013344],[37.5263899,55.801356],[37.5264035,55.8013789],[37.5263681,55.8013957],[37.5263111,55.8013927],[37.5263084,55.801414],[37.5263627,55.8014354],[37.5263437,55.8014675],[37.5261835,55.8015026],[37.5260993,55.8014888],[37.5261183,55.8015255],[37.5255968,55.8016522],[37.525567,55.8016217],[37.5255398,55.8016262],[37.5255235,55.8016705],[37.5253606,55.8017087],[37.5252899,55.8016934],[37.5252601,55.8016507],[37.5252519,55.8016736],[37.5252085,55.8016812],[37.5251786,55.8016674],[37.5251867,55.8016293],[37.5251407,55.8016171],[37.5250862,55.8016064],[37.52507,55.8016354],[37.5250129,55.80164],[37.5249885,55.8016171],[37.5250319,55.8015438],[37.5249593,55.8015322]],[[37.5257724,55.8011328],[37.5258637,55.8012552],[37.5259147,55.8013261],[37.5260679,55.8012939],[37.5260875,55.8012726],[37.5261118,55.8012331],[37.5260657,55.801169],[37.5259423,55.8011552],[37.5259071,55.8011009],[37.5257724,55.8011328]],[[37.5253146,55.8012412],[37.5254039,55.8013614],[37.5254681,55.8014469],[37.5253202,55.801478],[37.5252825,55.8014703],[37.5252126,55.8014525],[37.5251645,55.8013889],[37.5251758,55.8013475],[37.5251135,55.8012889],[37.5253146,55.8012412]]]]},"properties":{"category":"unspecified","ordinal":6,"short_name":{"ru":"7"},"name":{"ru":"7 этаж"},"building_ids":["building-55"],"outdoor":false}},{"type":"Feature","id":"level-55-8","feature_type":"level","geometry":{"type":"MultiPolygon","coordinates":[[[[37.5249593,55.8015322],[37.5247691,55.8015838],[37.5247199,55.8015101],[37.524897,55.8012612],[37.5248872,55.8012244],[37.5249069,55.8011857],[37.524979,55.8011672],[37.5250249,55.8011764],[37.5257923,55.8009829],[37.525821,55.8009501],[37.5258907,55.800935],[37.5259566,55.8009425],[37.5259865,55.8009703],[37.5260522,55.800985],[37.526107,55.8009969],[37.5264425,55.8010776],[37.5265059,55.8011483],[37.526353,55.8011922],[37.526426,55.8012301],[37.5264643,55.8012436],[37.5264855,55.8012654],[37.5264585,55.8012857],[37.5263629,55.8012807],[37.5263504,55.8012931],[37.5263149,55.8013344],[37.5263899,55.801356],[37.5264035,55.8013789],[37.5263681,55.8013957],[37.5263111,55.8013927],[37.5263084,55.801414],[37.5263627,55.8014354],[37.5263437,55.8014675],[37.5261835,55.8015026],[37.5260993,55.8014888],[37.5261183,55.8015255],[37.5255968,55.8016522],[37.525567,55.8016217],[37.5255398,55.8016262],[37.5255235,55.8016705],[37.5253606,55.8017087],[37.5252899,55.8016934],[37.5252601,55.8016507],[37.5252519,55.8016736],[37.5252085,55.8016812],[37.5251786,55.8016674],[37.5251867,55.8016293],[37.5251407,55.8016171],[37.5250862,55.8016064],[37.52507,55.8016354],[37.5250129,55.80164],[37.5249885,55.8016171],[37.5250319,55.8015438],[37.5249593,55.8015322]],[[37.5257724,55.8011328],[37.5258637,55.8012552],[37.5259147,55.8013261],[37.5260679,55.8012939],[37.5260875,55.8012726],[37.5261118,55.8012331],[37.5260657,55.801169],[37.5259423,55.8011552],[37.5259071,55.8011009],[37.5257724,55.8011328]],[[37.5253146,55.8012412],[37.5254039,55.8013614],[37.5254681,55.8014469],[37.5253202,55.801478],[37.5252825,55.8014703],[37.5252126,55.8014525],[37.5251645,55.8013889],[37.5251758,55.8013475],[37.5251135,55.8012889],[37.5253146,55.8012412]]]]},"properties":{"category":"unspecified","ordinal":7,"short_name":{"ru":"8"},"name":{"ru":"8 этаж"},"building_ids":["building-55"],"outdoor":false}},{"type":"Feature","id":"level-55-9","feature_type":"level","geometry":{"type":"MultiPolygon","coordinates":[[[[37.5249593,55.8015322],[37.5247691,55.8015838],[37.5247199,55.8015101],[37.524897,55.8012612],[37.5248872,55.8012244],[37.5249069,55.8011857],[37.524979,55.8011672],[37.5250249,55.8011764],[37.5257923,55.8009829],[37.525821,55.8009501],[37.5258907,55.800935],[37.5259566,55.8009425],[37.5259865,55.8009703],[37.5260522,55.800985],[37.526107,55.8009969],[37.5264425,55.8010776],[37.5265059,55.8011483],[37.526353,55.8011922],[37.526426,55.8012301],[37.5264643,55.8012436],[37.5264855,55.8012654],[37.5264585,55.8012857],[37.5263629,55.8012807],[37.5263504,55.8012931],[37.5263149,55.8013344],[37.5263899,55.801356],[37.5264035,55.8013789],[37.5263681,55.8013957],[37.5263111,55.8013927],[37.5263084,55.801414],[37.5263627,55.8014354],[37.5263437,55.8014675],[37.5261835,55.8015026],[37.5260993,55.8014888],[37.5261183,55.8015255],[37.5255968,55.8016522],[37.525567,55.8016217],[37.5255398,55.8016262],[37.5255235,55.8016705],[37.5253606,55.8017087],[37.5252899,55.8016934],[37.5252601,55.8016507],[37.5252519,55.8016736],[37.5252085,55.8016812],[37.5251786,55.8016674],[37.5251867,55.8016293],[37.5251407,55.8016171],[37.5250862,55.8016064],[37.52507,55.8016354],[37.5250129,55.80164],[37.5249885,55.8016171],[37.5250319,55.8015438],[37.5249593,55.8015322]],[[37.5257724,55.8011328],[37.5258637,55.8012552],[37.5259147,55.8013261],[37.5260679,55.8012939],[37.5260875,55.8012726],[37.5261118,55.8012331],[37.5260657,55.801169],[37.5259423,55.8011552],[37.5259071,55.8011009],[37.5257724,55.8011328]],[[37.5253146,55.8012412],[37.5254039,55.8013614],[37.5254681,55.8014469],[37.5253202,55.801478],[37.5252825,55.8014703],[37.5252126,55.8014525],[37.5251645,55.8013889],[37.5251758,55.8013475],[37.5251135,55.8012889],[37.5253146,55.8012412]]]]},"properties":{"category":"unspecified","ordinal":8,"short_name":{"ru":"9"},"name":{"ru":"9 этаж"},"building_ids":["building-55"],"outdoor":false}},{"type":"Feature","id":"building-49","feature_type":"building","geometry":null,"properties":{"category":"unspecified","name":{"ru":"49 и 49/2"},"osm":"relation/7896779"}},{"type":"Feature","id":"footprint-49","feature_type":"footprint","geometry":{"type":"MultiPolygon","coordinates":[[[[37.5276008,55.8006148],[37.5275288,55.8005195],[37.5274725,55.8004443],[37.5279637,55.8003265],[37.5279638,55.8002869],[37.5279681,55.7999961],[37.5279709,55.7998501],[37.5288316,55.7998553],[37.5291321,55.8002402],[37.5294739,55.8006812],[37.5288689,55.8008299],[37.5288396,55.800791],[37.5288175,55.8007641],[37.5287705,55.8007034],[37.528914,55.8006681],[37.5287698,55.8004828],[37.5286312,55.8005168],[37.5284657,55.800304],[37.5286523,55.8002581],[37.5284507,55.799999],[37.5281332,55.7999971],[37.5281398,55.8002896],[37.5281429,55.8003726],[37.5281105,55.8003802],[37.5281362,55.8004146],[37.5282356,55.8003912],[37.5282838,55.8004559],[37.5279978,55.80052],[37.5276008,55.8006148]]]]},"properties":{"category":"ground","building_ids":["building-49"]}},{"type":"Feature","id":"level-49-1","feature_type":"level","geometry":{"type":"MultiPolygon","coordinates":[[[[37.5276008,55.8006148],[37.5275288,55.8005195],[37.5274725,55.8004443],[37.5279637,55.8003265],[37.5279638,55.8002869],[37.5279681,55.7999961],[37.5279709,55.7998501],[37.5288316,55.7998553],[37.5291321,55.8002402],[37.5294739,55.8006812],[37.5288689,55.8008299],[37.5288396,55.800791],[37.5288175,55.8007641],[37.5287705,55.8007034],[37.528914,55.8006681],[37.5287698,55.8004828],[37.5286312,55.8005168],[37.5284657,55.800304],[37.5286523,55.8002581],[37.5284507,55.799999],[37.5281332,55.7999971],[37.5281398,55.8002896],[37.5281429,55.8003726],[37.5281105,55.8003802],[37.5281362,55.8004146],[37.5282356,55.8003912],[37.5282838,55.8004559],[37.5279978,55.80052],[37.5276008,55.8006148]]]]},"properties":{"category":"unspecified","ordinal":0,"short_name":{"ru":"1"},"name":{"ru":"1 этаж"},"building_ids":["building-49"],"outdoor":false}},{"type":"Feature","id":"level-49-2","feature_type":"level","geometry":{"type":"MultiPolygon","coordinates":[[[[37.5276008,55.8006148],[37.5275288,55.8005195],[37.5274725,55.8004443],[37.5279637,55.8003265],[37.5279638,55.8002869],[37.5279681,55.7999961],[37.5279709,55.7998501],[37.5288316,55.7998553],[37.5291321,55.8002402],[37.5294739,55.8006812],[37.5288689,55.8008299],[37.5288396,55.800791],[37.5288175,55.8007641],[37.5287705,55.8007034],[37.528914,55.8006681],[37.5287698,55.8004828],[37.5286312,55.8005168],[37.5284657,55.800304],[37.5286523,55.8002581],[37.5284507,55.799999],[37.5281332,55.7999971],[37.5281398,55.8002896],[37.5281429,55.8003726],[37.5281105,55.8003802],[37.5281362,55.8004146],[37.5282356,55.8003912],[37.5282838,55.8004559],[37.5279978,55.80052],[37.5276008,55.8006148]]]]},"properties":{"category":"unspecified","ordinal":1,"short_name":{"ru":"2"},"name":{"ru":"2 этаж"},"building_ids":["building-49"],"outdoor":false}},{"type":"Feature","id":"level-49-3","feature_type":"level","geometry":{"type":"MultiPolygon","coordinates":[[[[37.5276008,55.8006148],[37.5275288,55.8005195],[37.5274725,55.8004443],[37.5279637,55.8003265],[37.5279638,55.8002869],[37.5279681,55.7999961],[37.5279709,55.7998501],[37.5288316,55.7998553],[37.5291321,55.8002402],[37.5294739,55.8006812],[37.5288689,55.8008299],[37.5288396,55.800791],[37.5288175,55.8007641],[37.5287705,55.8007034],[37.528914,55.8006681],[37.5287698,55.8004828],[37.5286312,55.8005168],[37.5284657,55.800304],[37.5286523,55.8002581],[37.5284507,55.799999],[37.5281332,55.7999971],[37.5281398,55.8002896],[37.5281429,55.8003726],[37.5281105,55.8003802],[37.5281362,55.8004146],[37.5282356,55.8003912],[37.5282838,55.8004559],[37.5279978,55.80052],[37.5276008,55.8006148]]]]},"properties":{"category":"unspecified","ordinal":2,"short_name":{"ru":"3"},"name":{"ru":"3 этаж"},"building_ids":["building-49"],"outdoor":false}},{"type":"Feature","id":"level-49-4","feature_type":"level","geometry":{"type":"MultiPolygon","coordinates":[[[[37.5276008,55.8006148],[37.5275288,55.8005195],[37.5274725,55.8004443],[37.5279637,55.8003265],[37.5279638,55.8002869],[37.5279681,55.7999961],[37.5279709,55.7998501],[37.5288316,55.7998553],[37.5291321,55.8002402],[37.5294739,55.8006812],[37.5288689,55.8008299],[37.5288396,55.800791],[37.5288175,55.8007641],[37.5287705,55.8007034],[37.528914,55.8006681],[37.5287698,55.8004828],[37.5286312,55.8005168],[37.5284657,55.800304],[37.5286523,55.8002581],[37.5284507,55.799999],[37.5281332,55.7999971],[37.5281398,55.8002896],[37.5281429,55.8003726],[37.5281105,55.8003802],[37.5281362,55.8004146],[37.5282356,55.8003912],[37.5282838,55.8004559],[37.5279978,55.80052],[37.5276008,55.8006148]]]]},"properties":{"category":"unspecified","ordinal":3,"short_name":{"ru":"4"},"name":{"ru":"4 этаж"},"building_ids":["building-49"],"outdoor":false}},{"type":"Feature","id":"level-49-5","feature_type":"level","geometry":{"type":"MultiPolygon","coordinates":[[[[37.5276008,55.8006148],[37.5275288,55.8005195],[37.5274725,55.8004443],[37.5279637,55.8003265],[37.5279638,55.8002869],[37.5279681,55.7999961],[37.5279709,55.7998501],[37.5288316,55.7998553],[37.5291321,55.8002402],[37.5294739,55.8006812],[37.5288689,55.8008299],[37.5288396,55.800791],[37.5288175,55.8007641],[37.5287705,55.8007034],[37.528914,55.8006681],[37.5287698,55.8004828],[37.5286312,55.8005168],[37.5284657,55.800304],[37.5286523,55.8002581],[37.5284507,55.799999],[37.5281332,55.7999971],[37.5281398,55.8002896],[37.5281429,55.8003726],[37.5281105,55.8003802],[37.5281362,55.8004146],[37.5282356,55.8003912],[37.5282838,55.8004559],[37.5279978,55.80052],[37.5276008,55.8006148]]]]},"properties":{"category":"unspecified","ordinal":4,"short_name":{"ru":"5"},"name":{"ru":"5 этаж"},"building_ids":["building-49"],"outdoor":false}},{"type":"Feature","id":"building-53","feature_type":"building","geometry":null,"properties":{"category":"unspecified","name":{"ru":"53"},"osm":"relation/7932074"}},{"type":"Feature","id":"footprint-53","feature_type":"footprint","geometry":{"type":"MultiPolygon","coordinates":[[[[37.5269815,55.8012462],[37.5268431,55.8012803],[37.5268782,55.8013253],[37.5272152,55.8012422],[37.5271789,55.8011956],[37.5271316,55.8011354],[37.527108,55.8011055],[37.5270027,55.80097],[37.5269794,55.8009766],[37.5269405,55.8009261],[37.5268335,55.8009522],[37.5268725,55.8010027],[37.5268041,55.801019],[37.5269815,55.8012462]]]]},"properties":{"category":"ground","building_ids":["building-53"]}},{"type":"Feature","id":"level-53-1","feature_type":"level","geometry":{"type":"MultiPolygon","coordinates":[[[[37.5269815,55.8012462],[37.5268431,55.8012803],[37.5268782,55.8013253],[37.5272152,55.8012422],[37.5271789,55.8011956],[37.5271316,55.8011354],[37.527108,55.8011055],[37.5270027,55.80097],[37.5269794,55.8009766],[37.5269405,55.8009261],[37.5268335,55.8009522],[37.5268725,55.8010027],[37.5268041,55.801019],[37.5269815,55.8012462]]]]},"properties":{"category":"unspecified","ordinal":0,"short_name":{"ru":"1"},"name":{"ru":"1 этаж"},"building_ids":["building-53"],"outdoor":false}},{"type":"Feature","id":"level-53-2","feature_type":"level","geometry":{"type":"MultiPolygon","coordinates":[[[[37.5269815,55.8012462],[37.5268431,55.8012803],[37.5268782,55.8013253],[37.5272152,55.8012422],[37.5271789,55.8011956],[37.5271316,55.8011354],[37.527108,55.8011055],[37.5270027,55.80097],[37.5269794,55.8009766],[37.5269405,55.8009261],[37.5268335,55.8009522],[37.5268725,55.8010027],[37.5268041,55.801019],[37.5269815,55.8012462]]]]},"properties":{"category":"unspecified","ordinal":1,"short_name":{"ru":"2"},"name":{"ru":"2 этаж"},"building_ids":["building-53"],"outdoor":false}},{"type":"Feature","id":"level-53-3","feature_type":"level","geometry":{"type":"MultiPolygon","coordinates":[[[[37.5269815,55.8012462],[37.5268431,55.8012803],[37.5268782,55.8013253],[37.5272152,55.8012422],[37.5271789,55.8011956],[37.5271316,55.8011354],[37.527108,55.8011055],[37.5270027,55.80097],[37.5269794,55.8009766],[37.5269405,55.8009261],[37.5268335,55.8009522],[37.5268725,55.8010027],[37.5268041,55.801019],[37.5269815,55.8012462]]]]},"properties":{"category":"unspecified","ordinal":2,"short_name":{"ru":"3"},"name":{"ru":"3 этаж"},"building_ids":["building-53"],"outdoor":false}},{"type":"Feature","id":"level-53-4","feature_type":"level","geometry":{"type":"MultiPolygon","coordinates":[[[[37.5269815,55.8012462],[37.5268431,55.8012803],[37.5268782,55.8013253],[37.5272152,55.8012422],[37.5271789,55.8011956],[37.5271316,55.8011354],[37.527108,55.8011055],[37.5270027,55.80097],[37.5269794,55.8009766],[37.5269405,55.8009261],[37.5268335,55.8009522],[37.5268725,55.8010027],[37.5268041,55.801019],[37.5269815,55.8012462]]]]},"properties":{"category":"unspecified","ordinal":3,"short_name":{"ru":"4"},"name":{"ru":"4 этаж"},"building_ids":["building-53"],"outdoor":false}},{"type":"Feature","id":"level-53-5","feature_type":"level","geometry":{"type":"MultiPolygon","coordinates":[[[[37.5269815,55.8012462],[37.5268431,55.8012803],[37.5268782,55.8013253],[37.5272152,55.8012422],[37.5271789,55.8011956],[37.5271316,55.8011354],[37.527108,55.8011055],[37.5270027,55.80097],[37.5269794,55.8009766],[37.5269405,55.8009261],[37.5268335,55.8009522],[37.5268725,55.8010027],[37.5268041,55.801019],[37.5269815,55.8012462]]]]},"properties":{"category":"unspecified","ordinal":4,"short_name":{"ru":"5"},"name":{"ru":"5 этаж"},"building_ids":["building-53"],"outdoor":false}},{"type":"Feature","id":"level-53-6","feature_type":"level","geometry":{"type":"MultiPolygon","coordinates":[[[[37.5269815,55.8012462],[37.5268431,55.8012803],[37.5268782,55.8013253],[37.5272152,55.8012422],[37.5271789,55.8011956],[37.5271316,55.8011354],[37.527108,55.8011055],[37.5270027,55.80097],[37.5269794,55.8009766],[37.5269405,55.8009261],[37.5268335,55.8009522],[37.5268725,55.8010027],[37.5268041,55.801019],[37.5269815,55.8012462]]]]},"properties":{"category":"unspecified","ordinal":5,"short_name":{"ru":"6"},"name":{"ru":"6 этаж"},"building_ids":["building-53"],"outdoor":false}},{"type":"Feature","id":"level-53-7","feature_type":"level","geometry":{"type":"MultiPolygon","coordinates":[[[[37.5269815,55.8012462],[37.5268431,55.8012803],[37.5268782,55.8013253],[37.5272152,55.8012422],[37.5271789,55.8011956],[37.5271316,55.8011354],[37.527108,55.8011055],[37.5270027,55.80097],[37.5269794,55.8009766],[37.5269405,55.8009261],[37.5268335,55.8009522],[37.5268725,55.8010027],[37.5268041,55.801019],[37.5269815,55.8012462]]]]},"properties":{"category":"unspecified","ordinal":6,"short_name":{"ru":"7"},"name":{"ru":"7 этаж"},"building_ids":["building-53"],"outdoor":false}},{"type":"Feature","id":"level-53-8","feature_type":"level","geometry":{"type":"MultiPolygon","coordinates":[[[[37.5269815,55.8012462],[37.5268431,55.8012803],[37.5268782,55.8013253],[37.5272152,55.8012422],[37.5271789,55.8011956],[37.5271316,55.8011354],[37.527108,55.8011055],[37.5270027,55.80097],[37.5269794,55.8009766],[37.5269405,55.8009261],[37.5268335,55.8009522],[37.5268725,55.8010027],[37.5268041,55.801019],[37.5269815,55.8012462]]]]},"properties":{"category":"unspecified","ordinal":7,"short_name":{"ru":"8"},"name":{"ru":"8 этаж"},"building_ids":["building-53"],"outdoor":false}},{"type":"Feature","id":"level-53-9","feature_type":"level","geometry":{"type":"MultiPolygon","coordinates":[[[[37.5269815,55.8012462],[37.5268431,55.8012803],[37.5268782,55.8013253],[37.5272152,55.8012422],[37.5271789,55.8011956],[37.5271316,55.8011354],[37.527108,55.8011055],[37.5270027,55.80097],[37.5269794,55.8009766],[37.5269405,55.8009261],[37.5268335,55.8009522],[37.5268725,55.8010027],[37.5268041,55.801019],[37.5269815,55.8012462]]]]},"properties":{"category":"unspecified","ordinal":8,"short_name":{"ru":"9"},"name":{"ru":"9 этаж"},"building_ids":["building-53"],"outdoor":false}},{"type":"Feature","id":"building-51-3","feature_type":"building","geometry":null,"properties":{"category":"unspecified","name":{"ru":"51 к.3"},"osm":"relation/7932077"}},{"type":"Feature","id":"footprint-51-3","feature_type":"footprint","geometry":{"type":"MultiPolygon","coordinates":[[[[37.5268929,55.8007067],[37.5268381,55.8007194],[37.5268254,55.8007019],[37.5267955,55.8006605],[37.526746,55.8005927],[37.5268005,55.8005802],[37.527207,55.8004863],[37.5272202,55.800504],[37.5274725,55.8004443],[37.5275288,55.8005195],[37.5272762,55.8005792],[37.5272423,55.8005872],[37.5272562,55.8006058],[37.5272192,55.8006146],[37.5272298,55.8006288],[37.5268929,55.8007067]]]]},"properties":{"category":"ground","building_ids":["building-51-3"]}},{"type":"Feature","id":"level-51-3-1","feature_type":"level","geometry":{"type":"MultiPolygon","coordinates":[[[[37.5268929,55.8007067],[37.5268381,55.8007194],[37.5268254,55.8007019],[37.5267955,55.8006605],[37.526746,55.8005927],[37.5268005,55.8005802],[37.527207,55.8004863],[37.5272202,55.800504],[37.5274725,55.8004443],[37.5275288,55.8005195],[37.5272762,55.8005792],[37.5272423,55.8005872],[37.5272562,55.8006058],[37.5272192,55.8006146],[37.5272298,55.8006288],[37.5268929,55.8007067]]]]},"properties":{"category":"unspecified","ordinal":0,"short_name":{"ru":"1"},"name":{"ru":"1 этаж"},"building_ids":["building-51-3"],"outdoor":false}},{"type":"Feature","id":"level-51-3-2","feature_type":"level","geometry":{"type":"MultiPolygon","coordinates":[[[[37.5268929,55.8007067],[37.5268381,55.8007194],[37.5268254,55.8007019],[37.5267955,55.8006605],[37.526746,55.8005927],[37.5268005,55.8005802],[37.527207,55.8004863],[37.5272202,55.800504],[37.5274725,55.8004443],[37.5275288,55.8005195],[37.5272762,55.8005792],[37.5272423,55.8005872],[37.5272562,55.8006058],[37.5272192,55.8006146],[37.5272298,55.8006288],[37.5268929,55.8007067]]]]},"properties":{"category":"unspecified","ordinal":1,"short_name":{"ru":"2"},"name":{"ru":"2 этаж"},"building_ids":["building-51-3"],"outdoor":false}},{"type":"Feature","id":"level-51-3-3","feature_type":"level","geometry":{"type":"MultiPolygon","coordinates":[[[[37.5268929,55.8007067],[37.5268381,55.8007194],[37.5268254,55.8007019],[37.5267955,55.8006605],[37.526746,55.8005927],[37.5268005,55.8005802],[37.527207,55.8004863],[37.5272202,55.800504],[37.5274725,55.8004443],[37.5275288,55.8005195],[37.5272762,55.8005792],[37.5272423,55.8005872],[37.5272562,55.8006058],[37.5272192,55.8006146],[37.5272298,55.8006288],[37.5268929,55.8007067]]]]},"properties":{"category":"unspecified","ordinal":2,"short_name":{"ru":"3"},"name":{"ru":"3 этаж"},"building_ids":["building-51-3"],"outdoor":false}},{"type":"Feature","id":"level-51-3-4","feature_type":"level","geometry":{"type":"MultiPolygon","coordinates":[[[[37.5268929,55.8007067],[37.5268381,55.8007194],[37.5268254,55.8007019],[37.5267955,55.8006605],[37.526746,55.8005927],[37.5268005,55.8005802],[37.527207,55.8004863],[37.5272202,55.800504],[37.5274725,55.8004443],[37.5275288,55.8005195],[37.5272762,55.8005792],[37.5272423,55.8005872],[37.5272562,55.8006058],[37.5272192,55.8006146],[37.5272298,55.8006288],[37.5268929,55.8007067]]]]},"properties":{"category":"unspecified","ordinal":3,"short_name":{"ru":"4"},"name":{"ru":"4 этаж"},"building_ids":["building-51-3"],"outdoor":false}},{"type":"Feature","id":"level-51-3-5","feature_type":"level","geometry":{"type":"MultiPolygon","coordinates":[[[[37.5268929,55.8007067],[37.5268381,55.8007194],[37.5268254,55.8007019],[37.5267955,55.8006605],[37.526746,55.8005927],[37.5268005,55.8005802],[37.527207,55.8004863],[37.5272202,55.800504],[37.5274725,55.8004443],[37.5275288,55.8005195],[37.5272762,55.8005792],[37.5272423,55.8005872],[37.5272562,55.8006058],[37.5272192,55.8006146],[37.5272298,55.8006288],[37.5268929,55.8007067]]]]},"properties":{"category":"unspecified","ordinal":4,"short_name":{"ru":"5"},"name":{"ru":"5 этаж"},"building_ids":["building-51-3"],"outdoor":false}},{"type":"Feature","id":"level-51-3-6","feature_type":"level","geometry":{"type":"MultiPolygon","coordinates":[[[[37.5268929,55.8007067],[37.5268381,55.8007194],[37.5268254,55.8007019],[37.5267955,55.8006605],[37.526746,55.8005927],[37.5268005,55.8005802],[37.527207,55.8004863],[37.5272202,55.800504],[37.5274725,55.8004443],[37.5275288,55.8005195],[37.5272762,55.8005792],[37.5272423,55.8005872],[37.5272562,55.8006058],[37.5272192,55.8006146],[37.5272298,55.8006288],[37.5268929,55.8007067]]]]},"properties":{"category":"unspecified","ordinal":5,"short_name":{"ru":"6"},"name":{"ru":"6 этаж"},"building_ids":["building-51-3"],"outdoor":false}},{"type":"Feature","id":"level-51-3-7","feature_type":"level","geometry":{"type":"MultiPolygon","coordinates":[[[[37.5268929,55.8007067],[37.5268381,55.8007194],[37.5268254,55.8007019],[37.5267955,55.8006605],[37.526746,55.8005927],[37.5268005,55.8005802],[37.527207,55.8004863],[37.5272202,55.800504],[37.5274725,55.8004443],[37.5275288,55.8005195],[37.5272762,55.8005792],[37.5272423,55.8005872],[37.5272562,55.8006058],[37.5272192,55.8006146],[37.5272298,55.8006288],[37.5268929,55.8007067]]]]},"properties":{"category":"unspecified","ordinal":6,"short_name":{"ru":"7"},"name":{"ru":"7 этаж"},"building_ids":["building-51-3"],"outdoor":false}},{"type":"Feature","id":"level-51-3-8","feature_type":"level","geometry":{"type":"MultiPolygon","coordinates":[[[[37.5268929,55.8007067],[37.5268381,55.8007194],[37.5268254,55.8007019],[37.5267955,55.8006605],[37.526746,55.8005927],[37.5268005,55.8005802],[37.527207,55.8004863],[37.5272202,55.800504],[37.5274725,55.8004443],[37.5275288,55.8005195],[37.5272762,55.8005792],[37.5272423,55.8005872],[37.5272562,55.8006058],[37.5272192,55.8006146],[37.5272298,55.8006288],[37.5268929,55.8007067]]]]},"properties":{"category":"unspecified","ordinal":7,"short_name":{"ru":"8"},"name":{"ru":"8 этаж"},"building_ids":["building-51-3"],"outdoor":false}},{"type":"Feature","id":"level-51-3-9","feature_type":"level","geometry":{"type":"MultiPolygon","coordinates":[[[[37.5268929,55.8007067],[37.5268381,55.8007194],[37.5268254,55.8007019],[37.5267955,55.8006605],[37.526746,55.8005927],[37.5268005,55.8005802],[37.527207,55.8004863],[37.5272202,55.800504],[37.5274725,55.8004443],[37.5275288,55.8005195],[37.5272762,55.8005792],[37.5272423,55.8005872],[37.5272562,55.8006058],[37.5272192,55.8006146],[37.5272298,55.8006288],[37.5268929,55.8007067]]]]},"properties":{"category":"unspecified","ordinal":8,"short_name":{"ru":"9"},"name":{"ru":"9 этаж"},"building_ids":["building-51-3"],"outdoor":false}},{"type":"Feature","id":"building-51-1","feature_type":"building","geometry":null,"properties":{"category":"unspecified","name":{"ru":"51 к.1"},"osm":"relation/7932081"}},{"type":"Feature","id":"footprint-51-1","feature_type":"footprint","geometry":{"type":"MultiPolygon","coordinates":[[[[37.528133,55.8010186],[37.5273759,55.8012066],[37.5273205,55.8012204],[37.5272352,55.8011097],[37.5272116,55.8010797],[37.5271545,55.8010076],[37.5275334,55.8009124],[37.5277788,55.8008506],[37.5279652,55.8008038],[37.5278636,55.8006762],[37.5284432,55.8005305],[37.5285285,55.8005091],[37.5287466,55.8007825],[37.5287686,55.8008094],[37.5288018,55.8008525],[37.5287183,55.8008732],[37.5286602,55.8008877],[37.5285982,55.8009031],[37.5285223,55.8009219],[37.528133,55.8010186]]]]},"properties":{"category":"ground","building_ids":["building-51-1"]}},{"type":"Feature","id":"level-51-1-1","feature_type":"level","geometry":{"type":"MultiPolygon","coordinates":[[[[37.528133,55.8010186],[37.5273759,55.8012066],[37.5273205,55.8012204],[37.5272352,55.8011097],[37.5272116,55.8010797],[37.5271545,55.8010076],[37.5275334,55.8009124],[37.5277788,55.8008506],[37.5279652,55.8008038],[37.5278636,55.8006762],[37.5284432,55.8005305],[37.5285285,55.8005091],[37.5287466,55.8007825],[37.5287686,55.8008094],[37.5288018,55.8008525],[37.5287183,55.8008732],[37.5286602,55.8008877],[37.5285982,55.8009031],[37.5285223,55.8009219],[37.528133,55.8010186]]]]},"properties":{"category":"unspecified","ordinal":0,"short_name":{"ru":"1"},"name":{"ru":"1 этаж"},"building_ids":["building-51-1"],"outdoor":false}},{"type":"Feature","id":"level-51-1-2","feature_type":"level","geometry":{"type":"MultiPolygon","coordinates":[[[[37.528133,55.8010186],[37.5273759,55.8012066],[37.5273205,55.8012204],[37.5272352,55.8011097],[37.5272116,55.8010797],[37.5271545,55.8010076],[37.5275334,55.8009124],[37.5277788,55.8008506],[37.5279652,55.8008038],[37.5278636,55.8006762],[37.5284432,55.8005305],[37.5285285,55.8005091],[37.5287466,55.8007825],[37.5287686,55.8008094],[37.5288018,55.8008525],[37.5287183,55.8008732],[37.5286602,55.8008877],[37.5285982,55.8009031],[37.5285223,55.8009219],[37.528133,55.8010186]]]]},"properties":{"category":"unspecified","ordinal":1,"short_name":{"ru":"2"},"name":{"ru":"2 этаж"},"building_ids":["building-51-1"],"outdoor":false}},{"type":"Feature","id":"level-51-1-3","feature_type":"level","geometry":{"type":"MultiPolygon","coordinates":[[[[37.528133,55.8010186],[37.5273759,55.8012066],[37.5273205,55.8012204],[37.5272352,55.8011097],[37.5272116,55.8010797],[37.5271545,55.8010076],[37.5275334,55.8009124],[37.5277788,55.8008506],[37.5279652,55.8008038],[37.5278636,55.8006762],[37.5284432,55.8005305],[37.5285285,55.8005091],[37.5287466,55.8007825],[37.5287686,55.8008094],[37.5288018,55.8008525],[37.5287183,55.8008732],[37.5286602,55.8008877],[37.5285982,55.8009031],[37.5285223,55.8009219],[37.528133,55.8010186]]]]},"properties":{"category":"unspecified","ordinal":2,"short_name":{"ru":"3"},"name":{"ru":"3 этаж"},"building_ids":["building-51-1"],"outdoor":false}},{"type":"Feature","id":"level-51-1-4","feature_type":"level","geometry":{"type":"MultiPolygon","coordinates":[[[[37.528133,55.8010186],[37.5273759,55.8012066],[37.5273205,55.8012204],[37.5272352,55.8011097],[37.5272116,55.8010797],[37.5271545,55.8010076],[37.5275334,55.8009124],[37.5277788,55.8008506],[37.5279652,55.8008038],[37.5278636,55.8006762],[37.5284432,55.8005305],[37.5285285,55.8005091],[37.5287466,55.8007825],[37.5287686,55.8008094],[37.5288018,55.8008525],[37.5287183,55.8008732],[37.5286602,55.8008877],[37.5285982,55.8009031],[37.5285223,55.8009219],[37.528133,55.8010186]]]]},"properties":{"category":"unspecified","ordinal":3,"short_name":{"ru":"4"},"name":{"ru":"4 этаж"},"building_ids":["building-51-1"],"outdoor":false}},{"type":"Feature","id":"level-51-1-5","feature_type":"level","geometry":{"type":"MultiPolygon","coordinates":[[[[37.528133,55.8010186],[37.5273759,55.8012066],[37.5273205,55.8012204],[37.5272352,55.8011097],[37.5272116,55.8010797],[37.5271545,55.8010076],[37.5275334,55.8009124],[37.5277788,55.8008506],[37.5279652,55.8008038],[37.5278636,55.8006762],[37.5284432,55.8005305],[37.5285285,55.8005091],[37.5287466,55.8007825],[37.5287686,55.8008094],[37.5288018,55.8008525],[37.5287183,55.8008732],[37.5286602,55.8008877],[37.5285982,55.8009031],[37.5285223,55.8009219],[37.528133,55.8010186]]]]},"properties":{"category":"unspecified","ordinal":4,"short_name":{"ru":"5"},"name":{"ru":"5 этаж"},"building_ids":["building-51-1"],"outdoor":false}},{"type":"Feature","id":"level-51-1-6","feature_type":"level","geometry":{"type":"MultiPolygon","coordinates":[[[[37.528133,55.8010186],[37.5273759,55.8012066],[37.5273205,55.8012204],[37.5272352,55.8011097],[37.5272116,55.8010797],[37.5271545,55.8010076],[37.5275334,55.8009124],[37.5277788,55.8008506],[37.5279652,55.8008038],[37.5278636,55.8006762],[37.5284432,55.8005305],[37.5285285,55.8005091],[37.5287466,55.8007825],[37.5287686,55.8008094],[37.5288018,55.8008525],[37.5287183,55.8008732],[37.5286602,55.8008877],[37.5285982,55.8009031],[37.5285223,55.8009219],[37.528133,55.8010186]]]]},"properties":{"category":"unspecified","ordinal":5,"short_name":{"ru":"6"},"name":{"ru":"6 этаж"},"building_ids":["building-51-1"],"outdoor":false}},{"type":"Feature","id":"level-51-1-7","feature_type":"level","geometry":{"type":"MultiPolygon","coordinates":[[[[37.528133,55.8010186],[37.5273759,55.8012066],[37.5273205,55.8012204],[37.5272352,55.8011097],[37.5272116,55.8010797],[37.5271545,55.8010076],[37.5275334,55.8009124],[37.5277788,55.8008506],[37.5279652,55.8008038],[37.5278636,55.8006762],[37.5284432,55.8005305],[37.5285285,55.8005091],[37.5287466,55.8007825],[37.5287686,55.8008094],[37.5288018,55.8008525],[37.5287183,55.8008732],[37.5286602,55.8008877],[37.5285982,55.8009031],[37.5285223,55.8009219],[37.528133,55.8010186]]]]},"properties":{"category":"unspecified","ordinal":6,"short_name":{"ru":"7"},"name":{"ru":"7 этаж"},"building_ids":["building-51-1"],"outdoor":false}},{"type":"Feature","id":"level-51-1-8","feature_type":"level","geometry":{"type":"MultiPolygon","coordinates":[[[[37.528133,55.8010186],[37.5273759,55.8012066],[37.5273205,55.8012204],[37.5272352,55.8011097],[37.5272116,55.8010797],[37.5271545,55.8010076],[37.5275334,55.8009124],[37.5277788,55.8008506],[37.5279652,55.8008038],[37.5278636,55.8006762],[37.5284432,55.8005305],[37.5285285,55.8005091],[37.5287466,55.8007825],[37.5287686,55.8008094],[37.5288018,55.8008525],[37.5287183,55.8008732],[37.5286602,55.8008877],[37.5285982,55.8009031],[37.5285223,55.8009219],[37.528133,55.8010186]]]]},"properties":{"category":"unspecified","ordinal":7,"short_name":{"ru":"8"},"name":{"ru":"8 этаж"},"building_ids":["building-51-1"],"outdoor":false}},{"type":"Feature","id":"level-51-1-9","feature_type":"level","geometry":{"type":"MultiPolygon","coordinates":[[[[37.528133,55.8010186],[37.5273759,55.8012066],[37.5273205,55.8012204],[37.5272352,55.8011097],[37.5272116,55.8010797],[37.5271545,55.8010076],[37.5275334,55.8009124],[37.5277788,55.8008506],[37.5279652,55.8008038],[37.5278636,55.8006762],[37.5284432,55.8005305],[37.5285285,55.8005091],[37.5287466,55.8007825],[37.5287686,55.8008094],[37.5288018,55.8008525],[37.5287183,55.8008732],[37.5286602,55.8008877],[37.5285982,55.8009031],[37.5285223,55.8009219],[37.528133,55.8010186]]]]},"properties":{"category":"unspecified","ordinal":8,"short_name":{"ru":"9"},"name":{"ru":"9 этаж"},"building_ids":["building-51-1"],"outdoor":false}},{"type":"Feature","id":"level-51-1-10","feature_type":"level","geometry":{"type":"MultiPolygon","coordinates":[[[[37.528133,55.8010186],[37.5273759,55.8012066],[37.5273205,55.8012204],[37.5272352,55.8011097],[37.5272116,55.8010797],[37.5271545,55.8010076],[37.5275334,55.8009124],[37.5277788,55.8008506],[37.5279652,55.8008038],[37.5278636,55.8006762],[37.5284432,55.8005305],[37.5285285,55.8005091],[37.5287466,55.8007825],[37.5287686,55.8008094],[37.5288018,55.8008525],[37.5287183,55.8008732],[37.5286602,55.8008877],[37.5285982,55.8009031],[37.5285223,55.8009219],[37.528133,55.8010186]]]]},"properties":{"category":"unspecified","ordinal":9,"short_name":{"ru":"10"},"name":{"ru":"10 этаж"},"building_ids":["building-51-1"],"outdoor":false}},{"type":"Feature","id":"level-51-1-11","feature_type":"level","geometry":{"type":"MultiPolygon","coordinates":[[[[37.528133,55.8010186],[37.5273759,55.8012066],[37.5273205,55.8012204],[37.5272352,55.8011097],[37.5272116,55.8010797],[37.5271545,55.8010076],[37.5275334,55.8009124],[37.5277788,55.8008506],[37.5279652,55.8008038],[37.5278636,55.8006762],[37.5284432,55.8005305],[37.5285285,55.8005091],[37.5287466,55.8007825],[37.5287686,55.8008094],[37.5288018,55.8008525],[37.5287183,55.8008732],[37.5286602,55.8008877],[37.5285982,55.8009031],[37.5285223,55.8009219],[37.528133,55.8010186]]]]},"properties":{"category":"unspecified","ordinal":10,"short_name":{"ru":"11"},"name":{"ru":"11 этаж"},"building_ids":["building-51-1"],"outdoor":false}},{"type":"Feature","id":"building-51-2","feature_type":"building","geometry":null,"properties":{"category":"unspecified","name":{"ru":"51 к.2"},"osm":"relation/7932084"}},{"type":"Feature","id":"footprint-51-2","feature_type":"footprint","geometry":{"type":"MultiPolygon","coordinates":[[[[37.5275334,55.8009124],[37.5277788,55.8008506],[37.5276008,55.8006148],[37.5275288,55.8005195],[37.5272762,55.8005792],[37.5275334,55.8009124]]]]},"properties":{"category":"ground","building_ids":["building-51-2"]}},{"type":"Feature","id":"level-51-2-1","feature_type":"level","geometry":{"type":"MultiPolygon","coordinates":[[[[37.5275334,55.8009124],[37.5277788,55.8008506],[37.5276008,55.8006148],[37.5275288,55.8005195],[37.5272762,55.8005792],[37.5275334,55.8009124]]]]},"properties":{"category":"unspecified","ordinal":0,"short_name":{"ru":"1"},"name":{"ru":"1 этаж"},"building_ids":["building-51-2"],"outdoor":false}},{"type":"Feature","id":"level-51-2-2","feature_type":"level","geometry":{"type":"MultiPolygon","coordinates":[[[[37.5275334,55.8009124],[37.5277788,55.8008506],[37.5276008,55.8006148],[37.5275288,55.8005195],[37.5272762,55.8005792],[37.5275334,55.8009124]]]]},"properties":{"category":"unspecified","ordinal":1,"short_name":{"ru":"2"},"name":{"ru":"2 этаж"},"building_ids":["building-51-2"],"outdoor":false}},{"type":"Feature","id":"level-51-2-3","feature_type":"level","geometry":{"type":"MultiPolygon","coordinates":[[[[37.5275334,55.8009124],[37.5277788,55.8008506],[37.5276008,55.8006148],[37.5275288,55.8005195],[37.5272762,55.8005792],[37.5275334,55.8009124]]]]},"properties":{"category":"unspecified","ordinal":2,"short_name":{"ru":"3"},"name":{"ru":"3 этаж"},"building_ids":["building-51-2"],"outdoor":false}},{"type":"Feature","id":"level-51-2-4","feature_type":"level","geometry":{"type":"MultiPolygon","coordinates":[[[[37.5275334,55.8009124],[37.5277788,55.8008506],[37.5276008,55.8006148],[37.5275288,55.8005195],[37.5272762,55.8005792],[37.5275334,55.8009124]]]]},"properties":{"category":"unspecified","ordinal":3,"short_name":{"ru":"4"},"name":{"ru":"4 этаж"},"building_ids":["building-51-2"],"outdoor":false}},{"type":"Feature","id":"level-51-2-5","feature_type":"level","geometry":{"type":"MultiPolygon","coordinates":[[[[37.5275334,55.8009124],[37.5277788,55.8008506],[37.5276008,55.8006148],[37.5275288,55.8005195],[37.5272762,55.8005792],[37.5275334,55.8009124]]]]},"properties":{"category":"unspecified","ordinal":4,"short_name":{"ru":"5"},"name":{"ru":"5 этаж"},"building_ids":["building-51-2"],"outdoor":false}},{"type":"Feature","id":"building-51-4","feature_type":"building","geometry":null,"properties":{"category":"unspecified","name":{"ru":"51 с.4"},"osm":"way/552768384"}},{"type":"Feature","id":"footprint-51-4","feature_type":"footprint","geometry":{"type":"MultiPolygon","coordinates":[[[[37.5265222,55.8007735],[37.5265889,55.8008504],[37.5266317,55.8008397],[37.5267384,55.8009754],[37.5268335,55.8009522],[37.5269405,55.8009261],[37.5271942,55.8008621],[37.5271201,55.8007679],[37.5269422,55.8008121],[37.5269084,55.8007692],[37.5268432,55.8007854],[37.5267835,55.8007109],[37.5265222,55.8007735]]]]},"properties":{"category":"ground","building_ids":["building-51-4"]}},{"type":"Feature","id":"level-51-4-1","feature_type":"level","geometry":{"type":"MultiPolygon","coordinates":[[[[37.5265222,55.8007735],[37.5265889,55.8008504],[37.5266317,55.8008397],[37.5267384,55.8009754],[37.5268335,55.8009522],[37.5269405,55.8009261],[37.5271942,55.8008621],[37.5271201,55.8007679],[37.5269422,55.8008121],[37.5269084,55.8007692],[37.5268432,55.8007854],[37.5267835,55.8007109],[37.5265222,55.8007735]]]]},"properties":{"category":"unspecified","ordinal":0,"short_name":{"ru":"1"},"name":{"ru":"1 этаж"},"building_ids":["building-51-4"],"outdoor":false}},{"type":"Feature","id":"level-51-4-2","feature_type":"level","geometry":{"type":"MultiPolygon","coordinates":[[[[37.5265222,55.8007735],[37.5265889,55.8008504],[37.5266317,55.8008397],[37.5267384,55.8009754],[37.5268335,55.8009522],[37.5269405,55.8009261],[37.5271942,55.8008621],[37.5271201,55.8007679],[37.5269422,55.8008121],[37.5269084,55.8007692],[37.5268432,55.8007854],[37.5267835,55.8007109],[37.5265222,55.8007735]]]]},"properties":{"category":"unspecified","ordinal":1,"short_name":{"ru":"2"},"name":{"ru":"2 этаж"},"building_ids":["building-51-4"],"outdoor":false}},{"type":"Feature","id":"level-51-4-3","feature_type":"level","geometry":{"type":"MultiPolygon","coordinates":[[[[37.5265222,55.8007735],[37.5265889,55.8008504],[37.5266317,55.8008397],[37.5267384,55.8009754],[37.5268335,55.8009522],[37.5269405,55.8009261],[37.5271942,55.8008621],[37.5271201,55.8007679],[37.5269422,55.8008121],[37.5269084,55.8007692],[37.5268432,55.8007854],[37.5267835,55.8007109],[37.5265222,55.8007735]]]]},"properties":{"category":"unspecified","ordinal":2,"short_name":{"ru":"3"},"name":{"ru":"3 этаж"},"building_ids":["building-51-4"],"outdoor":false}},{"type":"Feature","id":"level-51-4-4","feature_type":"level","geometry":{"type":"MultiPolygon","coordinates":[[[[37.5265222,55.8007735],[37.5265889,55.8008504],[37.5266317,55.8008397],[37.5267384,55.8009754],[37.5268335,55.8009522],[37.5269405,55.8009261],[37.5271942,55.8008621],[37.5271201,55.8007679],[37.5269422,55.8008121],[37.5269084,55.8007692],[37.5268432,55.8007854],[37.5267835,55.8007109],[37.5265222,55.8007735]]]]},"properties":{"category":"unspecified","ordinal":3,"short_name":{"ru":"4"},"name":{"ru":"4 этаж"},"building_ids":["building-51-4"],"outdoor":false}},{"type":"Feature","id":"level-51-4-5","feature_type":"level","geometry":{"type":"MultiPolygon","coordinates":[[[[37.5265222,55.8007735],[37.5265889,55.8008504],[37.5266317,55.8008397],[37.5267384,55.8009754],[37.5268335,55.8009522],[37.5269405,55.8009261],[37.5271942,55.8008621],[37.5271201,55.8007679],[37.5269422,55.8008121],[37.5269084,55.8007692],[37.5268432,55.8007854],[37.5267835,55.8007109],[37.5265222,55.8007735]]]]},"properties":{"category":"unspecified","ordinal":4,"short_name":{"ru":"5"},"name":{"ru":"5 этаж"},"building_ids":["building-51-4"],"outdoor":false}},{"type":"Feature","id":"level-51-4-6","feature_type":"level","geometry":{"type":"MultiPolygon","coordinates":[[[[37.5265222,55.8007735],[37.5265889,55.8008504],[37.5266317,55.8008397],[37.5267384,55.8009754],[37.5268335,55.8009522],[37.5269405,55.8009261],[37.5271942,55.8008621],[37.5271201,55.8007679],[37.5269422,55.8008121],[37.5269084,55.8007692],[37.5268432,55.8007854],[37.5267835,55.8007109],[37.5265222,55.8007735]]]]},"properties":{"category":"unspecified","ordinal":5,"short_name":{"ru":"6"},"name":{"ru":"6 этаж"},"building_ids":["building-51-4"],"outdoor":false}}]}